#aV2024  6 25  0  0  0.00000000     288 DD+AD WGS84 FIT  NGA
## 2320 172800.00000000   300.00000000 60486 0.0000000000000
+   31     2  3  4  5  6  7  8  9 10 11 12 13 14 15 16 17 18
+         19 20 21 22 23 24 25 26 27 28 29 30 31 32  0  0  0
+          0  0  0  0  0  0  0  0  0  0  0  0  0  0  0  0  0
+          0  0  0  0  0  0  0  0  0  0  0  0  0  0  0  0  0
+          0  0  0  0  0  0  0  0  0  0  0  0  0  0  0  0  0
++         2  2  2  2  2  2  2  2  2  2  2  2  2  2  2  2  2
++         2  2  2  2  2  2  2  2  2  2  2  2  2  2  0  0  0
++         0  0  0  0  0  0  0  0  0  0  0  0  0  0  0  0  0
++         0  0  0  0  0  0  0  0  0  0  0  0  0  0  0  0  0
++         0  0  0  0  0  0  0  0  0  0  0  0  0  0  0  0  0
%c cc cc ccc ccc cccc cccc cccc cccc ccccc ccccc ccccc ccccc
%c cc cc ccc ccc cccc cccc cccc cccc ccccc ccccc ccccc ccccc
%f  0.0000000  0.000000000  0.00000000000  0.000000000000000
%f  0.0000000  0.000000000  0.00000000000  0.000000000000000
%i    0    0    0    0      0      0      0      0         0
%i    0    0    0    0      0      0      0      0         0
/*      NGA, ST. LOUIS,MO.                                  
/*   EPHEMERIS COMPUTED FROM 2 DAYS OF DATA                 
/*   EPOCHA v9 SMOOTHER                                     
/*   G2296 IERS2010 SATIGS SATAPC                           
*  2024  6 25 21 50  0.00000000
P  2 -14560.221793  20518.131483   8489.968142   -410.894453                    
V  2   1432.671103 -10426.732677  29592.406853      0.071749                    
P  3 -15700.204441  12470.292335 -17518.070752    430.433445                    
V  3 -21955.591970   -121.062872  19888.089918      0.172238                    
P  4  -6640.818265  15921.400836 -20141.300461    390.895398                    
V  4 -14246.453167 -21341.811358 -12295.961613      0.079831                    
P  5  25756.659941  -5327.962490   3823.819794   -177.594014                    
V  5   5285.822065   1839.220306 -31454.821209     -0.013349                    
P  6   9803.106019  11852.375761 -21576.343778    197.904872                    
V  6 -13152.671992  24131.836022   7364.354736     -0.217801                    
P  7  -3273.826415  23945.321314  10981.753763    -83.755441                    
V  7  -8655.378128  10600.184434 -27437.992824      0.091198                    
P  8 -14532.553725   5777.411312  21394.984316    246.767891                    
V  8 -15635.177546 -22517.351316  -4096.351299      0.174367                    
P  9   4638.916390  22716.196990 -12992.119479    248.837417                    
V  9 -11238.622148 -12151.987171 -25474.193469      0.147687                    
P 10 -16793.245934 -10916.171751  17816.079123    -51.073336                    
V 10  21940.338380  -2207.537633  19240.960855     -0.087938                    
P 11  17136.938951  -2027.794060 -20152.579830   -692.962157                    
V 11 -11682.549850  22847.357169 -12274.647832     -0.076232                    
P 12  18415.829270 -10908.384331 -15974.209275   -517.150938                    
V 12  19766.373128   2088.244888  21791.954462     -0.031671                    
P 13  16927.613474   4051.736544  19920.292144    660.426595                    
V 13  10059.799152  23624.567822 -12983.990990      0.025653                    
P 14  12859.507471  13383.119794  19114.745360    434.126769                    
V 14 -24111.758141   2201.834999  14493.941018      0.090435                    
P 15  13695.000747  -7794.445240  20895.163804    174.180357                    
V 15  18307.219073  20906.927058  -3915.937675      0.042120                    
P 16 -26778.760017   -235.961733    809.367673   -254.127115                    
V 16  -1340.733565  -2461.268153 -31463.481513      0.107027                    
P 17  12935.844744  23094.659219    373.070860    688.840035                    
V 17  -2335.640953   1369.831760  32035.969049     -0.063214                    
P 18   3782.794294 -23634.366758  11298.776173   -629.454409                    
V 18   8649.642484 -11698.299288 -27591.830134     -0.045839                    
P 19  16798.445124  18783.630195  -9188.577859    501.601868                    
V 19   3394.517552  10955.730877  28755.232243      0.054097                    
P 20  25649.519334  -1489.094386  -6345.616867    373.437919                    
V 20  -7255.580134   4848.048851 -30312.090402     -0.004152                    
P 21 -16187.178480  16025.308754  13170.554012    113.063272                    
V 21   3372.474875 -16336.686620  25848.180586     -0.025192                    
P 22  19469.014415  10867.827729  14625.187343    -31.935252                    
V 22 -18033.636593   1572.606898  23799.010490     -0.047782                    
P 23  -4208.203701 -14420.451170  21942.210484    259.059104                    
V 23  27618.070418  -2495.613100   3463.513531      0.090695                    
P 24  14808.955879 -19619.618941   9090.175510   -479.970205                    
V 24   -947.931362  12832.556084  28359.453851     -0.022067                    
P 25   7679.734635 -15319.623288 -20567.029977    497.818831                    
V 25  25477.315631   -796.974837  10533.055226      0.004772                    
P 26 -23269.981891  -5768.646372 -11970.495805    130.858770                    
V 26  14372.624931  -4826.982540 -25574.416925     -0.064713                    
P 27 -18878.928716  -6309.975395  17498.117652    -29.410928                    
V 27 -11333.789162 -19645.997750 -18586.456158     -0.011703                    
P 28  -9159.239860 -14244.635393 -20470.392186   -304.792040                    
V 28  11794.682766 -23158.031556  10841.616837     -0.164683                    
P 29   -137.055545 -21741.788511 -15219.276770   -592.550652                    
V 29  10949.199515  15957.565458 -23089.459165      0.017714                    
P 30   5522.082631  18685.807517  18082.211055   -368.267768                    
V 30 -12125.409033  19469.585482 -16821.986904      0.063028                    
P 31 -15769.552336  -2761.441478 -21458.550526   -227.184613                    
V 31  12225.022963 -23753.588789  -5601.407734      0.002304                    
P 32 -15730.524569 -21460.715389  -1595.685480   -614.960500                    
V 32    897.475175  -3336.520231  31575.021605      0.014696                    
EOF
